{"type": "FeatureCollection", "features": [ {"type": "Feature", "properties": {"norad_id": 42741, "name": "EUTELSAT 172B", "group": "eutelsat", "lat": 0.0036591734358086122, "lon": 139.70922756365346, "alt_km": 35786.827102241085, "timestamp": "2025-12-07T16:44:03.582562+00:00", "meta": {"OBJECT_NAME": "EUTELSAT 172B", "OBJECT_ID": "2017-029B", "EPOCH": "2025-12-06T21:19:57.628416", "MEAN_MOTION": 1.00265447, "ECCENTRICITY": 3.7e-05, "INCLINATION": 0.01, "RA_OF_ASC_NODE": 82.5178, "ARG_OF_PERICENTER": 107.1069, "MEAN_ANOMALY": 18.2914, "EPHEMERIS_TYPE": 0, "CLASSIFICATION_TYPE": "U", "NORAD_CAT_ID": 42741, "ELEMENT_SET_NO": 999, "REV_AT_EPOCH": 3180, "BSTAR": 0, "MEAN_MOTION_DOT": -1e-08, "MEAN_MOTION_DDOT": 0}, "tle": {"line1": "1 42741U 17029B   25340.88886144 -.00000001  00000+0  00000+0 0  9998", "line2": "2 42741   0.0100  82.5178 0000370 107.1069  18.2914  1.00265447 31802"}}, "geometry": {"type": "Point", "coordinates": [139.70922756365346, 0.0036591734358086122]}}, {"type": "Feature", "properties": {"norad_id": 44334, "name": "EUTELSAT 7C", "group": "eutelsat", "lat": 0.033745132695243304, "lon": -25.2605476691863, "alt_km": 35787.680586377384, "timestamp": "2025-12-07T16:44:03.582574+00:00", "meta": {"OBJECT_NAME": "EUTELSAT 7C", "OBJECT_ID": "2019-034B", "EPOCH": "2025-12-06T03:25:30.364320", "MEAN_MOTION": 1.00270039, "ECCENTRICITY": 0.00034504, "INCLINATION": 0.0751, "RA_OF_ASC_NODE": 179.1623, "ARG_OF_PERICENTER": 60.529, "MEAN_ANOMALY": 253.8532, "EPHEMERIS_TYPE": 0, "CLASSIFICATION_TYPE": "U", "NORAD_CAT_ID": 44334, "ELEMENT_SET_NO": 999, "REV_AT_EPOCH": 490, "BSTAR": 0, "MEAN_MOTION_DOT": 5.6e-07, "MEAN_MOTION_DDOT": 0}, "tle": {"line1": "1 44334U 19034B   25340.14271255  .00000056  00000+0  00000+0 0  9995", "line2": "2 44334   0.0751 179.1623 0003450  60.5290 253.8532  1.00270039  4909"}}, "geometry": {"type": "Point", "coordinates": [-25.2605476691863, 0.033745132695243304]}}, {"type": "Feature", "properties": {"norad_id": 44624, "name": "EUTELSAT 5 WEST B", "group": "eutelsat", "lat": -0.021740618089637325, "lon": -37.237709046056196, "alt_km": 35780.212370426256, "timestamp": "2025-12-07T16:44:03.582587+00:00", "meta": {"OBJECT_NAME": "EUTELSAT 5 WEST B", "OBJECT_ID": "2019-067A", "EPOCH": "2025-12-06T22:06:38.876256", "MEAN_MOTION": 1.00270528, "ECCENTRICITY": 0.00035934, "INCLINATION": 0.0663, "RA_OF_ASC_NODE": 336.1801, "ARG_OF_PERICENTER": 280.5987, "MEAN_ANOMALY": 145.8386, "EPHEMERIS_TYPE": 0, "CLASSIFICATION_TYPE": "U", "NORAD_CAT_ID": 44624, "ELEMENT_SET_NO": 999, "REV_AT_EPOCH": 2250, "BSTAR": 0, "MEAN_MOTION_DOT": -3.7e-07, "MEAN_MOTION_DDOT": 0}, "tle": {"line1": "1 44624U 19067A   25340.92128329 -.00000037  00000+0  00000+0 0  9992", "line2": "2 44624   0.0663 336.1801 0003593 280.5987 145.8386  1.00270528 22507"}}, "geometry": {"type": "Point", "coordinates": [-37.237709046056196, -0.021740618089637325]}}, {"type": "Feature", "properties": {"norad_id": 45027, "name": "EUTELSAT KONNECT", "group": "eutelsat", "lat": -0.0625862736881876, "lon": -25.093630448032563, "alt_km": 35781.88762055873, "timestamp": "2025-12-07T16:44:03.582599+00:00", "meta": {"OBJECT_NAME": "EUTELSAT KONNECT", "OBJECT_ID": "2020-005B", "EPOCH": "2025-12-05T22:17:29.870880", "MEAN_MOTION": 1.00267987, "ECCENTRICITY": 0.00018557, "INCLINATION": 0.0712, "RA_OF_ASC_NODE": 98.3329, "ARG_OF_PERICENTER": 187.648, "MEAN_ANOMALY": 130.555, "EPHEMERIS_TYPE": 0, "CLASSIFICATION_TYPE": "U", "NORAD_CAT_ID": 45027, "ELEMENT_SET_NO": 999, "REV_AT_EPOCH": 2238, "BSTAR": 0, "MEAN_MOTION_DOT": 5.8e-07, "MEAN_MOTION_DDOT": 0}, "tle": {"line1": "1 45027U 20005B   25339.92881795  .00000058  00000+0  00000+0 0  9997", "line2": "2 45027   0.0712  98.3329 0001855 187.6480 130.5550  1.00267987 22381"}}, "geometry": {"type": "Point", "coordinates": [-25.093630448032563, -0.0625862736881876]}}, {"type": "Feature", "properties": {"norad_id": 49056, "name": "EUTELSAT QUANTUM", "group": "eutelsat", "lat": -0.003708050400977224, "lon": 15.464314246097535, "alt_km": 35790.931350050254, "timestamp": "2025-12-07T16:44:03.582612+00:00", "meta": {"OBJECT_NAME": "EUTELSAT QUANTUM", "OBJECT_ID": "2021-069B", "EPOCH": "2025-12-06T21:26:45.790656", "MEAN_MOTION": 1.00270716, "ECCENTRICITY": 0.00037203, "INCLINATION": 0.0281, "RA_OF_ASC_NODE": 44.9429, "ARG_OF_PERICENTER": 223.4477, "MEAN_ANOMALY": 176.9261, "EPHEMERIS_TYPE": 0, "CLASSIFICATION_TYPE": "U", "NORAD_CAT_ID": 49056, "ELEMENT_SET_NO": 999, "REV_AT_EPOCH": 1600, "BSTAR": 0, "MEAN_MOTION_DOT": 1.32e-06, "MEAN_MOTION_DDOT": 0}, "tle": {"line1": "1 49056U 21069B   25340.89358554  .00000132  00000+0  00000+0 0  9997", "line2": "2 49056   0.0281  44.9429 0003720 223.4477 176.9261  1.00270716 16003"}}, "geometry": {"type": "Point", "coordinates": [15.464314246097535, -0.003708050400977224]}}, {"type": "Feature", "properties": {"norad_id": 53765, "name": "EUTELSAT KONNECT VHTS", "group": "eutelsat", "lat": -0.04808118936247267, "lon": -29.549336765045663, "alt_km": 35787.38547161927, "timestamp": "2025-12-07T16:44:03.582623+00:00", "meta": {"OBJECT_NAME": "EUTELSAT KONNECT VHTS", "OBJECT_ID": "2022-110A", "EPOCH": "2025-12-06T21:58:38.690976", "MEAN_MOTION": 1.0026987, "ECCENTRICITY": 0.00027281, "INCLINATION": 0.063, "RA_OF_ASC_NODE": 106.113, "ARG_OF_PERICENTER": 130.1187, "MEAN_ANOMALY": 172.0757, "EPHEMERIS_TYPE": 0, "CLASSIFICATION_TYPE": "U", "NORAD_CAT_ID": 53765, "ELEMENT_SET_NO": 999, "REV_AT_EPOCH": 489, "BSTAR": 0, "MEAN_MOTION_DOT": 2.3e-07, "MEAN_MOTION_DDOT": 0}, "tle": {"line1": "1 53765U 22110A   25340.91572559  .00000023  00000+0  00000+0 0  9992", "line2": "2 53765   0.0630 106.1130 0002728 130.1187 172.0757  1.00269870  4892"}}, "geometry": {"type": "Point", "coordinates": [-29.549336765045663, -0.04808118936247267]}}, {"type": "Feature", "properties": {"norad_id": 54048, "name": "EUTELSAT HOTBIRD 13F", "group": "eutelsat", "lat": 0.0353713803585709, "lon": -19.266603031783323, "alt_km": 35776.684019395056, "timestamp": "2025-12-07T16:44:03.582635+00:00", "meta": {"OBJECT_NAME": "EUTELSAT HOTBIRD 13F", "OBJECT_ID": "2022-134A", "EPOCH": "2025-12-06T21:50:38.745024", "MEAN_MOTION": 1.00273163, "ECCENTRICITY": 0.00021775, "INCLINATION": 0.0467, "RA_OF_ASC_NODE": 293.5462, "ARG_OF_PERICENTER": 59.1956, "MEAN_ANOMALY": 63.8704, "EPHEMERIS_TYPE": 0, "CLASSIFICATION_TYPE": "U", "NORAD_CAT_ID": 54048, "ELEMENT_SET_NO": 999, "REV_AT_EPOCH": 1144, "BSTAR": 0, "MEAN_MOTION_DOT": 9.3e-07, "MEAN_MOTION_DDOT": 0}, "tle": {"line1": "1 54048U 22134A   25340.91017066  .00000093  00000+0  00000+0 0  9997", "line2": "2 54048   0.0467 293.5462 0002177  59.1956  63.8704  1.00273163 11444"}}, "geometry": {"type": "Point", "coordinates": [-19.266603031783323, 0.0353713803585709]}}, {"type": "Feature", "properties": {"norad_id": 54225, "name": "EUTELSAT HOTBIRD 13G", "group": "eutelsat", "lat": 0.03312680117993252, "lon": -19.27689846076316, "alt_km": 35793.44873136421, "timestamp": "2025-12-07T16:44:03.582647+00:00", "meta": {"OBJECT_NAME": "EUTELSAT HOTBIRD 13G", "OBJECT_ID": "2022-146A", "EPOCH": "2025-12-05T15:28:18.292224", "MEAN_MOTION": 1.00270321, "ECCENTRICITY": 0.00019255, "INCLINATION": 0.0461, "RA_OF_ASC_NODE": 235.0424, "ARG_OF_PERICENTER": 313.1322, "MEAN_ANOMALY": 131.5912, "EPHEMERIS_TYPE": 0, "CLASSIFICATION_TYPE": "U", "NORAD_CAT_ID": 54225, "ELEMENT_SET_NO": 999, "REV_AT_EPOCH": 552, "BSTAR": 0, "MEAN_MOTION_DOT": 9.7e-07, "MEAN_MOTION_DDOT": 0}, "tle": {"line1": "1 54225U 22146A   25339.64465616  .00000097  00000+0  00000+0 0  9997", "line2": "2 54225   0.0461 235.0424 0001925 313.1322 131.5912  1.00270321  5523"}}, "geometry": {"type": "Point", "coordinates": [-19.27689846076316, 0.03312680117993252]}}, {"type": "Feature", "properties": {"norad_id": 54259, "name": "EUTELSAT 10B", "group": "eutelsat", "lat": -0.052106595691763444, "lon": -22.294774541839033, "alt_km": 35791.15989522065, "timestamp": "2025-12-07T16:44:03.582659+00:00", "meta": {"OBJECT_NAME": "EUTELSAT 10B", "OBJECT_ID": "2022-157A", "EPOCH": "2025-12-06T21:50:38.745024", "MEAN_MOTION": 1.00267719, "ECCENTRICITY": 0.00010647, "INCLINATION": 0.0633, "RA_OF_ASC_NODE": 101.1933, "ARG_OF_PERICENTER": 82.8619, "MEAN_ANOMALY": 229.5334, "EPHEMERIS_TYPE": 0, "CLASSIFICATION_TYPE": "U", "NORAD_CAT_ID": 54259, "ELEMENT_SET_NO": 999, "REV_AT_EPOCH": 1109, "BSTAR": 0, "MEAN_MOTION_DOT": 7.3e-07, "MEAN_MOTION_DDOT": 0}, "tle": {"line1": "1 54259U 22157A   25340.91017066  .00000073  00000+0  00000+0 0  9994", "line2": "2 54259   0.0633 101.1933 0001064  82.8619 229.5334  1.00267719 11094"}}, "geometry": {"type": "Point", "coordinates": [-22.294774541839033, -0.052106595691763444]}}, {"type": "Feature", "properties": {"norad_id": 59346, "name": "EUTELSAT 36D", "group": "eutelsat", "lat": 0.009149144929806433, "lon": 3.600055023572374, "alt_km": 35785.72606138828, "timestamp": "2025-12-07T16:44:03.582671+00:00", "meta": {"OBJECT_NAME": "EUTELSAT 36D", "OBJECT_ID": "2024-059A", "EPOCH": "2025-12-06T21:32:21.547104", "MEAN_MOTION": 1.0026999, "ECCENTRICITY": 4.478e-05, "INCLINATION": 0.0095, "RA_OF_ASC_NODE": 353.5839, "ARG_OF_PERICENTER": 303.7384, "MEAN_ANOMALY": 137.5713, "EPHEMERIS_TYPE": 0, "CLASSIFICATION_TYPE": "U", "NORAD_CAT_ID": 59346, "ELEMENT_SET_NO": 999, "REV_AT_EPOCH": 621, "BSTAR": 0, "MEAN_MOTION_DOT": 1.61e-06, "MEAN_MOTION_DDOT": 0}, "tle": {"line1": "1 59346U 24059A   25340.89747161  .00000161  00000+0  00000+0 0  9990", "line2": "2 59346   0.0095 353.5839 0000447 303.7384 137.5713  1.00269990  6214"}}, "geometry": {"type": "Point", "coordinates": [3.600055023572374, 0.009149144929806433]}}]}